{
  "type": "FeatureCollection",
  "features": [
    {
      "type": "Feature",
      "properties": {
        "norad_id": 66554,
        "name": "GLOBAL-33",
        "group": "last-30-days",
        "lat": 35.02496210187941,
        "lon": 151.9392827231276,
        "alt_km": 462.6638162849631,
        "timestamp": "2025-12-18T14:52:06.780134+00:00",
        "meta_object_name": "GLOBAL-33",
        "meta_object_id": "2025-267A",
        "meta_epoch": "2025-12-18T04:57:13.101696",
        "meta_mean_motion": 15.31667898,
        "meta_eccentricity": 0.0003598,
        "meta_inclination": 42.0218,
        "meta_ra_of_asc_node": 25.4335,
        "meta_arg_of_pericenter": 120.4223,
        "meta_mean_anomaly": 239.697,
        "meta_ephemeris_type": 0,
        "meta_classification_type": "U",
        "meta_norad_cat_id": 66554,
        "meta_element_set_no": 999,
        "meta_rev_at_epoch": 424,
        "meta_bstar": 0.00037991492,
        "meta_mean_motion_dot": 0.00011636,
        "meta_mean_motion_ddot": 0,
        "tle_line1": "1 66554U 25267A   25352.20640164  .00011636  00000+0  37991-3 0  9996",
        "tle_line2": "2 66554  42.0218  25.4335 0003598 120.4223 239.6970 15.31667898  4246"
      },
      "geometry": {
        "type": "Point",
        "coordinates": [
          151.9392827231276,
          35.02496210187941
        ]
      }
    },
    {
      "type": "Feature",
      "properties": {
        "norad_id": 66555,
        "name": "ELECTRON KICK STAGE R/B",
        "group": "last-30-days",
        "lat": -22.235628190920636,
        "lon": -130.17546989680406,
        "alt_km": 470.4648782637705,
        "timestamp": "2025-12-18T14:52:06.780146+00:00",
        "meta_object_name": "ELECTRON KICK STAGE R/B",
        "meta_object_id": "2025-267B",
        "meta_epoch": "2025-12-18T06:07:15.055968",
        "meta_mean_motion": 15.33072736,
        "meta_eccentricity": 0.00067564,
        "meta_inclination": 42.0196,
        "meta_ra_of_asc_node": 24.9307,
        "meta_arg_of_pericenter": 98.5116,
        "meta_mean_anomaly": 261.6488,
        "meta_ephemeris_type": 0,
        "meta_classification_type": "U",
        "meta_norad_cat_id": 66555,
        "meta_element_set_no": 999,
        "meta_rev_at_epoch": 425,
        "meta_bstar": 0.00070622545,
        "meta_mean_motion_dot": 0.00022888,
        "meta_mean_motion_ddot": 0,
        "tle_line1": "1 66555U 25267B   25352.25503537  .00022888  00000+0  70623-3 0  9994",
        "tle_line2": "2 66555  42.0196  24.9307 0006756  98.5116 261.6488 15.33072736  4253"
      },
      "geometry": {
        "type": "Point",
        "coordinates": [
          -130.17546989680406,
          -22.235628190920636
        ]
      }
    },
    {
      "type": "Feature",
      "properties": {
        "norad_id": 66557,
        "name": "STARLINK-35699",
        "group": "last-30-days",
        "lat": -13.175439334962773,
        "lon": -78.63763245637196,
        "alt_km": 416.0847487128167,
        "timestamp": "2025-12-18T14:52:06.780158+00:00",
        "meta_object_name": "STARLINK-35699",
        "meta_object_id": "2025-268A",
        "meta_epoch": "2025-12-18T06:16:58.643040",
        "meta_mean_motion": 15.50604014,
        "meta_eccentricity": 2.854e-05,
        "meta_inclination": 43.0006,
        "meta_ra_of_asc_node": 88.9063,
        "meta_arg_of_pericenter": 296.0515,
        "meta_mean_anomaly": 64.0315,
        "meta_ephemeris_type": 0,
        "meta_classification_type": "U",
        "meta_norad_cat_id": 66557,
        "meta_element_set_no": 999,
        "meta_rev_at_epoch": 548,
        "meta_bstar": 0.0017607106,
        "meta_mean_motion_dot": 0.00104432,
        "meta_mean_motion_ddot": 0,
        "tle_line1": "1 66557U 25268A   25352.26178985  .00104432  00000+0  17607-2 0  9991",
        "tle_line2": "2 66557  43.0006  88.9063 0000285 296.0515  64.0315 15.50604014  5483"
      },
      "geometry": {
        "type": "Point",
        "coordinates": [
          -78.63763245637196,
          -13.175439334962773
        ]
      }
    },
    {
      "type": "Feature",
      "properties": {
        "norad_id": 66558,
        "name": "STARLINK-35695",
        "group": "last-30-days",
        "lat": -14.478762539247416,
        "lon": -77.10502737125843,
        "alt_km": 415.7037621475074,
        "timestamp": "2025-12-18T14:52:06.780171+00:00",
        "meta_object_name": "STARLINK-35695",
        "meta_object_id": "2025-268B",
        "meta_epoch": "2025-12-18T00:05:28.220640",
        "meta_mean_motion": 15.50633257,
        "meta_eccentricity": 0.00028075,
        "meta_inclination": 43.0005,
        "meta_ra_of_asc_node": 90.4106,
        "meta_arg_of_pericenter": 280.5511,
        "meta_mean_anomaly": 79.5033,
        "meta_ephemeris_type": 0,
        "meta_classification_type": "U",
        "meta_norad_cat_id": 66558,
        "meta_element_set_no": 999,
        "meta_rev_at_epoch": 544,
        "meta_bstar": 0.0018156431,
        "meta_mean_motion_dot": 0.00107869,
        "meta_mean_motion_ddot": 0,
        "tle_line1": "1 66558U 25268B   25352.00379885  .00107869  00000+0  18156-2 0  9993",
        "tle_line2": "2 66558  43.0005  90.4106 0002807 280.5511  79.5033 15.50633257  5440"
      },
      "geometry": {
        "type": "Point",
        "coordinates": [
          -77.10502737125843,
          -14.478762539247416
        ]
      }
    },
    {
      "type": "Feature",
      "properties": {
        "norad_id": 66559,
        "name": "STARLINK-35419",
        "group": "last-30-days",
        "lat": -15.70235752918636,
        "lon": -75.63733945618914,
        "alt_km": 415.95556850917546,
        "timestamp": "2025-12-18T14:52:06.780182+00:00",
        "meta_object_name": "STARLINK-35419",
        "meta_object_id": "2025-268C",
        "meta_epoch": "2025-12-18T00:04:57.419040",
        "meta_mean_motion": 15.50581937,
        "meta_eccentricity": 0.00018951,
        "meta_inclination": 43.0022,
        "meta_ra_of_asc_node": 90.4094,
        "meta_arg_of_pericenter": 275.3774,
        "meta_mean_anomaly": 84.687,
        "meta_ephemeris_type": 0,
        "meta_classification_type": "U",
        "meta_norad_cat_id": 66559,
        "meta_element_set_no": 999,
        "meta_rev_at_epoch": 544,
        "meta_bstar": 0.0015246885,
        "meta_mean_motion_dot": 0.00090152,
        "meta_mean_motion_ddot": 0,
        "tle_line1": "1 66559U 25268C   25352.00344235  .00090152  00000+0  15247-2 0  9999",
        "tle_line2": "2 66559  43.0022  90.4094 0001895 275.3774  84.6870 15.50581937  5448"
      },
      "geometry": {
        "type": "Point",
        "coordinates": [
          -75.63733945618914,
          -15.70235752918636
        ]
      }
    },
    {
      "type": "Feature",
      "properties": {
        "norad_id": 66560,
        "name": "STARLINK-35411",
        "group": "last-30-days",
        "lat": -16.986685887379227,
        "lon": -74.06480215107753,
        "alt_km": 416.1579594278901,
        "timestamp": "2025-12-18T14:52:06.780192+00:00",
        "meta_object_name": "STARLINK-35411",
        "meta_object_id": "2025-268D",
        "meta_epoch": "2025-12-18T00:04:28.174368",
        "meta_mean_motion": 15.5060011,
        "meta_eccentricity": 9.925e-05,
        "meta_inclination": 43.0001,
        "meta_ra_of_asc_node": 90.4058,
        "meta_arg_of_pericenter": 284.0327,
        "meta_mean_anomaly": 76.0423,
        "meta_ephemeris_type": 0,
        "meta_classification_type": "U",
        "meta_norad_cat_id": 66560,
        "meta_element_set_no": 999,
        "meta_rev_at_epoch": 544,
        "meta_bstar": 0.0019422689,
        "meta_mean_motion_dot": 0.00115382,
        "meta_mean_motion_ddot": 0,
        "tle_line1": "1 66560U 25268D   25352.00310387  .00115382  00000+0  19423-2 0  9995",
        "tle_line2": "2 66560  43.0001  90.4058 0000992 284.0327  76.0423 15.50600110  5449"
      },
      "geometry": {
        "type": "Point",
        "coordinates": [
          -74.06480215107753,
          -16.986685887379227
        ]
      }
    },
    {
      "type": "Feature",
      "properties": {
        "norad_id": 66561,
        "name": "STARLINK-35305",
        "group": "last-30-days",
        "lat": -19.429336636822786,
        "lon": -70.96825650655363,
        "alt_km": 416.25774764849393,
        "timestamp": "2025-12-18T14:52:06.780202+00:00",
        "meta_object_name": "STARLINK-35305",
        "meta_object_id": "2025-268E",
        "meta_epoch": "2025-12-18T00:03:29.017152",
        "meta_mean_motion": 15.50603624,
        "meta_eccentricity": 9.191e-05,
        "meta_inclination": 43.0009,
        "meta_ra_of_asc_node": 90.4008,
        "meta_arg_of_pericenter": 275.7133,
        "meta_mean_anomaly": 84.3622,
        "meta_ephemeris_type": 0,
        "meta_classification_type": "U",
        "meta_norad_cat_id": 66561,
        "meta_element_set_no": 999,
        "meta_rev_at_epoch": 544,
        "meta_bstar": 0.0018887599,
        "meta_mean_motion_dot": 0.00112161,
        "meta_mean_motion_ddot": 0,
        "tle_line1": "1 66561U 25268E   25352.00241918  .00112161  00000+0  18888-2 0  9995",
        "tle_line2": "2 66561  43.0009  90.4008 0000919 275.7133  84.3622 15.50603624  5440"
      },
      "geometry": {
        "type": "Point",
        "coordinates": [
          -70.96825650655363,
          -19.429336636822786
        ]
      }
    }
  ]
}